NORAD_CAT_ID,OBJECT_NAME,OBJECT_TYPE,EPOCH,MEAN_MOTION,ECCENTRICITY,INCLINATION,RA_OF_ASC_NODE,ARG_OF_PERICENTER,MEAN_ANOMALY,BSTAR,MEAN_MOTION_DOT,MEAN_MOTION_DDOT,TLE_LINE0,TLE_LINE1,TLE_LINE2,SEMIMAJOR_AXIS,PERIOD,APOGEE,PERIGEE,DECAYED
53555.0,STARLINK-4504,PAYLOAD,2023-03-29 15:59:32,15.08845936,0.0001414,53.2161,214.5771,93.4527,266.6627,0.00047006,7.202e-05,0.0,0 STARLINK-4504,1 53555U 22101AE  23088.66634506  .00007202  00000-0  47006-3 0  9997,2 53555  53.2161 214.5771 0001414  93.4527 266.6627 15.08845936 34528,6917.862,95.437,540.705,538.749,0.0
53555.0,STARLINK-4504,PAYLOAD,2023-03-30 07:53:23,15.08845326,0.0001341,53.2146,211.6032,87.413,272.7016,0.00038212,5.8e-05,0.0,0 STARLINK-4504,1 53555U 22101AE  23089.32874577  .00005800  00000-0  38212-3 0  9996,2 53555  53.2146 211.6032 0001341  87.4130 272.7016 15.08845326 33961,6917.864,95.437,540.657,538.801,0.0
53555.0,STARLINK-4504,PAYLOAD,2023-03-30 15:50:18,15.08864763,0.0001487,53.2147,210.1157,84.1642,275.952,0.0010944,0.00017184,0.0,0 STARLINK-4504,1 53555U 22101AE  23089.65994212  .00017184  00000-0  10944-2 0  9990,2 53555  53.2147 210.1157 0001487  84.1642 275.9520 15.08864763 34015,6917.805,95.436,540.698,538.641,0.0
53555.0,STARLINK-4504,PAYLOAD,2023-03-31 01:22:37,15.08857624,0.000193,53.2144,208.3342,83.3105,276.8107,0.00068693,0.00010667,0.0,0 STARLINK-4504,1 53555U 22101AE  23090.05738156  .00010667  00000-0  68693-3 0  9993,2 53555  53.2144 208.3342 0001930  83.3105 276.8107 15.08857624 34070,6917.827,95.436,541.027,538.356,0.0
53555.0,STARLINK-4504,PAYLOAD,2023-03-31 12:30:19,15.08849385,0.0001948,53.2156,206.2511,95.3817,264.7398,0.00016493,2.338e-05,0.0,0 STARLINK-4504,1 53555U 22101AE  23090.52106141  .00002338  00000-0  16493-3 0  9995,2 53555  53.2156 206.2511 0001948  95.3817 264.7398 15.08849385 34141,6917.852,95.437,541.064,538.369,0.0
53555.0,STARLINK-4504,PAYLOAD,2023-04-01 12:21:07,15.08823473,0.0001521,53.2161,201.7882,103.319,256.7972,-0.00011974,-2.192e-05,0.0,0 STARLINK-4504,1 53555U 22101AE  23091.51466974 -.00002192  00000-0 -11974-3 0  9997,2 53555  53.2161 201.7882 0001521 103.3190 256.7972 15.08823473 34294,6917.931,95.439,540.848,538.744,0.0
53555.0,STARLINK-4504,PAYLOAD,2023-04-01 17:06:38,15.10541301,0.0006143,53.2155,200.8945,18.7711,341.3507,0.04847,0.00871374,0.0,0 STARLINK-4504,1 53555U 22101AE  23091.71294031  .00871374  00000-0  48470-1 0  9995,2 53555  53.2155 200.8945 0006143  18.7711 341.3507 15.10541301 34329,6912.685,95.33,538.797,530.304,0.0
53555.0,STARLINK-4504,PAYLOAD,2023-04-03 06:00:00,15.08820244,0.0001266,53.2161,193.9989,104.4082,326.8939,0.0034898,0.00055661,0.0,0 STARLINK-4504,1 53555U 22101AE  23093.25001157  .00055661  00000-0  34898-2 0  9994,2 53555  53.2161 193.9989 0001266 104.4082 326.8939 15.08820244 34556,6917.941,95.439,540.682,538.93,0.0
53555.0,STARLINK-4504,PAYLOAD,2023-04-03 12:02:41,15.08850739,0.0001343,53.2157,192.8687,97.2309,262.8835,0.00041002,6.245e-05,0.0,0 STARLINK-4504,1 53555U 22101AE  23093.50187094  .00006245  00000-0  41002-3 0  9997,2 53555  53.2157 192.8687 0001343  97.2309 262.8835 15.08850739 35255,6917.848,95.437,540.642,538.783,0.0
53555.0,STARLINK-4504,PAYLOAD,2023-04-03 16:48:51,15.08858451,0.0001224,53.2158,191.9774,94.8401,265.2731,0.0019858,0.00031473,0.0,0 STARLINK-4504,1 53555U 22101AE  23093.70059098  .00031473  00000-0  19858-2 0  9995,2 53555  53.2158 191.9774 0001224  94.8401 265.2731 15.08858451 34628,6917.824,95.436,540.536,538.842,0.0
53555.0,STARLINK-4504,PAYLOAD,2023-04-03 23:10:23,15.08856857,0.0001952,53.2156,190.7871,82.6742,277.4472,0.0016451,0.00026003,0.0,0 STARLINK-4504,1 53555U 22101AE  23093.96555373  .00026003  00000-0  16451-2 0  9999,2 53555  53.2156 190.7871 0001952  82.6742 277.4472 15.08856857 34661,6917.829,95.436,541.044,538.344,0.0
53555.0,STARLINK-4504,PAYLOAD,2023-04-04 11:53:28,15.08860453,0.0001141,53.2155,188.4083,88.2795,271.8327,0.0015349,0.00024238,0.0,0 STARLINK-4504,1 53555U 22101AE  23094.49546809  .00024238  00000-0  15349-2 0  9995,2 53555  53.2155 188.4083 0001141  88.2795 271.8327 15.08860453 34742,6917.818,95.436,540.472,538.894,0.0
53555.0,STARLINK-4504,PAYLOAD,2023-04-05 06:00:00,15.08825056,0.0001167,53.2157,185.0211,104.5087,36.3607,0.0024583,0.00039037,0.0,0 STARLINK-4504,1 53555U 22101AE  23095.25001157  .00039037  00000-0  24583-2 0  9995,2 53555  53.2157 185.0211 0001167 104.5087  36.3607 15.08825056 34851,6917.926,95.438,540.598,538.984,0.0
53555.0,STARLINK-4504,PAYLOAD,2023-04-05 14:00:01,15.0885085,0.0001124,53.2154,183.5266,86.9527,65.5079,-0.0023104,-0.0003688,0.0,0 STARLINK-4504,1 53555U 22101AE  23095.58334491 -.00036880  00000-0 -23104-2 0  9994,2 53555  53.2154 183.5266 0001124  86.9527  65.5079 15.08850850  1307,6917.847,95.437,540.49,538.935,0.0
53555.0,STARLINK-4504,PAYLOAD,2023-04-05 22:00:00,15.08836498,0.0001065,53.215,182.0291,85.774,78.2777,-0.00023302,-3.994e-05,0.0,0 STARLINK-4504,1 53555U 22101AE  23095.91667824 -.00003994  00000-0 -23302-3 0  9991,2 53555  53.2150 182.0291 0001065  85.7740  78.2777 15.08836498 34958,6917.891,95.438,540.493,539.019,0.0
53555.0,STARLINK-4504,PAYLOAD,2023-04-06 14:00:01,15.08853432,0.000113,53.215,179.0375,83.5245,103.7847,-0.0027457,-0.00043736,0.0,0 STARLINK-4504,1 53555U 22101AE  23096.58335648 -.00043736  00000-0 -27457-2 0  9993,2 53555  53.2150 179.0375 0001130  83.5245 103.7847 15.08853432  1308,6917.839,95.437,540.486,538.923,0.0
53555.0,STARLINK-4504,PAYLOAD,2023-04-06 22:00:00,15.08837353,0.0001051,53.2147,177.5398,90.9621,107.8771,-0.00036772,-6.135e-05,0.0,0 STARLINK-4504,1 53555U 22101AE  23096.91667824 -.00006135  00000-0 -36772-3 0  9997,2 53555  53.2147 177.5398 0001051  90.9621 107.8771 15.08837353  1309,6917.888,95.438,540.481,539.026,0.0
53555.0,STARLINK-4504,PAYLOAD,2023-04-07 05:04:17,15.08842046,0.0001352,53.2156,176.2168,90.192,269.9227,0.00018021,2.581e-05,0.0,0 STARLINK-4504,1 53555U 22101AE  23097.21131476  .00002581  00000-0  18021-3 0  9996,2 53555  53.2156 176.2168 0001352  90.1920 269.9227 15.08842046 35159,6917.874,95.437,540.674,538.804,0.0
53555.0,STARLINK-4504,PAYLOAD,2023-04-07 11:25:50,15.08845275,0.0001361,53.2155,175.0274,89.5756,270.5392,0.00021449,3.128e-05,0.0,0 STARLINK-4504,1 53555U 22101AE  23097.47627330  .00003128  00000-0  21449-3 0  9999,2 53555  53.2155 175.0274 0001361  89.5756 270.5392 15.08845275 35857,6917.864,95.437,540.671,538.788,0.0
53555.0,STARLINK-4504,PAYLOAD,2023-04-08 11:16:37,15.08837903,0.0001532,53.2153,170.5668,86.6132,273.5035,2.7782e-05,1.54e-06,0.0,0 STARLINK-4504,1 53555U 22101AE  23098.46987803  .00000154  00000-0  27782-4 0  9996,2 53555  53.2153 170.5668 0001532  86.6132 273.5035 15.08837903 35348,6917.887,95.438,540.812,538.692,0.0
53555.0,STARLINK-4504,PAYLOAD,2023-04-09 09:32:00,15.08847189,0.0001495,53.2149,166.4038,85.9374,274.1789,0.00019203,2.77e-05,0.0,0 STARLINK-4504,1 53555U 22101AE  23099.39723312  .00002770  00000-0  19203-3 0  9996,2 53555  53.2149 166.4038 0001495  85.9374 274.1789 15.08847189 35481,6917.858,95.437,540.758,538.689,0.0
53555.0,STARLINK-4504,PAYLOAD,2023-04-09 11:07:23,15.08850063,0.000146,53.2151,166.1055,92.6258,267.4901,0.00019635,2.839e-05,0.0,0 STARLINK-4504,1 53555U 22101AE  23099.46347118  .00002839  00000-0  19635-3 0  9995,2 53555  53.2151 166.1055 0001460  92.6258 267.4901 15.08850063 36159,6917.85,95.437,540.725,538.705,0.0
53555.0,STARLINK-4504,PAYLOAD,2023-04-10 04:36:38,15.08838692,0.000153,53.2138,162.8355,82.26,277.8565,9.8879e-05,1.286e-05,0.0,0 STARLINK-4504,1 53555U 22101AE  23100.19211711  .00001286  00000-0  98879-4 0  9990,2 53555  53.2138 162.8355 0001530  82.2600 277.8565 15.08838692 35608,6917.884,95.438,540.808,538.691,0.0
53555.0,STARLINK-4504,PAYLOAD,2023-04-10 07:47:25,15.08837943,0.0001504,53.2141,162.2406,84.5953,275.5211,0.00012375,1.682e-05,0.0,0 STARLINK-4504,1 53555U 22101AE  23100.32459765  .00001682  00000-0  12375-3 0  9994,2 53555  53.2141 162.2406 0001504  84.5953 275.5211 15.08837943 36286,6917.887,95.438,540.792,538.711,0.0
53555.0,STARLINK-4504,PAYLOAD,2023-04-10 20:30:29,15.08843868,0.0001485,53.2148,159.8621,103.8976,256.2181,7.1817e-05,8.55e-06,0.0,0 STARLINK-4504,1 53555U 22101AE  23100.85451236  .00000855  00000-0  71817-4 0  9995,2 53555  53.2148 159.8621 0001485 103.8976 256.2181 15.08843868 36366,6917.869,95.437,540.761,538.706,0.0
53555.0,STARLINK-4504,PAYLOAD,2023-04-11 10:48:57,15.08847038,0.0001671,53.2156,157.1855,101.284,258.834,2.4502e-05,1.02e-06,0.0,0 STARLINK-4504,1 53555U 22101AE  23101.45066968  .00000102  00000-0  24502-4 0  9990,2 53555  53.2156 157.1855 0001671 101.2840 258.8340 15.08847038 36452,6917.859,95.437,540.88,538.568,0.0
53555.0,STARLINK-4504,PAYLOAD,2023-04-12 04:18:12,15.08833855,0.0001497,53.2154,153.9141,100.1156,260.0005,-5.131e-05,-1.104e-05,0.0,0 STARLINK-4504,1 53555U 22101AE  23102.17931641 -.00001104  00000-0 -51310-4 0  9991,2 53555  53.2154 153.9141 0001497 100.1156 260.0005 15.08833855 35900,6917.899,95.438,540.8,538.729,0.0
53555.0,STARLINK-4504,PAYLOAD,2023-04-12 12:15:08,15.08837261,0.000142,53.2161,152.4272,96.5178,263.5976,2.4042e-05,9.5e-07,0.0,0 STARLINK-4504,1 53555U 22101AE  23102.51051860  .00000095  00000-0  24042-4 0  9993,2 53555  53.2161 152.4272 0001420  96.5178 263.5976 15.08837261 36614,6917.889,95.438,540.736,538.771,0.0
53555.0,STARLINK-4504,PAYLOAD,2023-04-13 10:30:32,15.08838851,0.0001487,53.2165,148.2642,95.8157,264.3004,3.5566e-05,2.78e-06,0.0,0 STARLINK-4504,1 53555U 22101AE  23103.43787957  .00000278  00000-0  35566-4 0  9994,2 53555  53.2165 148.2642 0001487  95.8157 264.3004 15.08838851 36756,6917.884,95.438,540.778,538.72,0.0
53555.0,STARLINK-4504,PAYLOAD,2023-04-13 12:05:55,15.08841026,0.0001631,53.2159,147.9662,97.774,262.3438,2.249e-05,7e-07,0.0,0 STARLINK-4504,1 53555U 22101AE  23103.50411849  .00000070  00000-0  22490-4 0  9998,2 53555  53.2159 147.9662 0001631  97.7740 262.3438 15.08841026 36103,6917.877,95.437,540.871,538.614,0.0
